CCSDS_OEM_VERS = 1.0
CREATION_DATE  = 2017-05-11T11:45:13
ORIGINATOR     = GMAT USER

META_START
OBJECT_NAME          = MOPSSat_alt_35785_km_RAAN_180_152
OBJECT_ID            = SatId
CENTER_NAME          = Earth
REF_FRAME            = EME2000
TIME_SYSTEM          = UTC
START_TIME           = 2017-01-01T00:00:00.000
USEABLE_START_TIME   = 2017-01-01T00:00:00.000
USEABLE_STOP_TIME    = 2017-01-02T00:00:00.000
STOP_TIME            = 2017-01-02T00:00:00.000
INTERPOLATION        = Lagrange
INTERPOLATION_DEGREE = 7 
META_STOP


                                                                                   

2017-01-01T11:45:50.000   6.320819419951612e+04  -1.268755807826345e+03   8.404481457248851e+00   7.173887714067916e-02   1.774562295006844e+00  -1.561156276327923e-02
2017-01-01T11:46:00.000   6.320890660287774e+04  -1.251010085603521e+03   8.248364963000308e+00   7.074179469830533e-02   1.774582067098537e+00  -1.561173535787237e-02
2017-01-01T11:46:10.000   6.320960903544960e+04  -1.233264166891540e+03   8.092246753735978e+00   6.974471790882436e-02   1.774601558944398e+00  -1.561190546825597e-02
2017-01-01T11:46:20.000   6.321030149728085e+04  -1.215518054682020e+03   7.936126855962150e+00   6.874764670427258e-02   1.774620770555211e+00  -1.561207309450900e-02
2017-01-01T11:46:30.000   6.321098398842169e+04  -1.197771751916551e+03   7.780005295745160e+00   6.775058101388266e-02   1.774639701941656e+00  -1.561223823670949e-02
2017-01-01T11:46:40.000   6.321165650891993e+04  -1.180025261578966e+03   7.623882099523123e+00   6.675352076926667e-02   1.774658353114212e+00  -1.561240089493373e-02
2017-01-01T11:46:50.000   6.321231905883647e+04  -1.162278586288159e+03   7.467757290523806e+00   6.575646588153961e-02   1.774676724083591e+00  -1.561256106926003e-02
2017-01-01T11:47:00.000   6.321297163822981e+04  -1.144531728706298e+03   7.311630892355831e+00   6.475941626425404e-02   1.774694814860303e+00  -1.561271875976495e-02
2017-01-01T11:47:10.000   6.321361424716003e+04  -1.126784691433455e+03   7.155502928081685e+00   6.376237182747978e-02   1.774712625454766e+00  -1.561287396652426e-02
2017-01-01T11:47:20.000   6.321424688567748e+04  -1.109037477290959e+03   6.999373422710512e+00   6.276533249372469e-02   1.774730155877002e+00  -1.561302668961021e-02
2017-01-01T11:47:30.000   6.321486955383240e+04  -1.091290089087572e+03   6.843242401141067e+00   6.176829818479623e-02   1.774747406136890e+00  -1.561317692909388e-02
2017-01-01T11:47:40.000   6.321548225167262e+04  -1.073542529671685e+03   6.687109888620870e+00   6.077126882473435e-02   1.774764376244113e+00  -1.561332468504457e-02
2017-01-01T11:47:50.000   6.321608497924489e+04  -1.055794801917139e+03   6.530975910621517e+00   5.977424433901379e-02   1.774781066208192e+00  -1.561346995753021e-02
2017-01-01T11:48:00.000   6.321667773659487e+04  -1.038046908705548e+03   6.374840492683138e+00   5.877722465355165e-02   1.774797476038480e+00  -1.561361274661727e-02
2017-01-01T11:48:10.000   6.321726052376744e+04  -1.020298852919896e+03   6.218703660358060e+00   5.778020969434754e-02   1.774813605744179e+00  -1.561375305237084e-02
2017-01-01T11:48:20.000   6.321783334080898e+04  -1.002550637381077e+03   6.062565438652565e+00   5.678319938391835e-02   1.774829455334400e+00  -1.561389087485530e-02
2017-01-01T11:48:30.000   6.321839618776581e+04  -9.848022648902048e+02   5.906425852399051e+00   5.578619364367512e-02   1.774845024818117e+00  -1.561402621413376e-02
2017-01-01T11:48:40.000   6.321894906468403e+04  -9.670537382286110e+02   5.750284926256058e+00   5.478919239392298e-02   1.774860314204168e+00  -1.561415907026817e-02
2017-01-01T11:48:50.000   6.321949197161073e+04  -9.493050601155318e+02   5.594142684336006e+00   5.379219555148465e-02   1.774875323501280e+00  -1.561428944331952e-02
2017-01-01T11:49:00.000   6.322002490859185e+04  -9.315562332715810e+02   5.437999150763579e+00   5.279520303326538e-02   1.774890052718023e+00  -1.561441733334739e-02
2017-01-01T11:49:10.000   6.322054787567265e+04  -9.138072604251554e+02   5.281854349732106e+00   5.179821475661270e-02   1.774904501862807e+00  -1.561454274041000e-02
2017-01-01T11:49:20.000   6.322106087289613e+04  -8.960581443301040e+02   5.125708305658974e+00   5.080123064030936e-02   1.774918670943851e+00  -1.561466566456389e-02
2017-01-01T11:49:30.000   6.322156390030349e+04  -8.783088877799260e+02   4.969561043310553e+00   4.980425060537015e-02   1.774932559969190e+00  -1.561478610586399e-02
2017-01-01T11:49:40.000   6.322205695793541e+04  -8.605594935555697e+02   4.813412587342953e+00   4.880727457210976e-02   1.774946168946712e+00  -1.561490406436395e-02
2017-01-01T11:49:50.000   6.322254004582634e+04  -8.428099646593192e+02   4.657262964359633e+00   4.781030247327907e-02   1.774959497884000e+00  -1.561501954011475e-02
2017-01-01T11:50:00.000   6.322301316401157e+04  -8.250603040313769e+02   4.501112200418022e+00   4.681333423814650e-02   1.774972546788528e+00  -1.561513253316644e-02
2017-01-01T11:50:10.000   6.322347631252449e+04  -8.073105146552562e+02   4.344960321956753e+00   4.581636979841774e-02   1.774985315667584e+00  -1.561524304356743e-02
2017-01-01T11:50:20.000   6.322392949140740e+04  -7.895605991494981e+02   4.188807352203809e+00   4.481940906530303e-02   1.774997804528567e+00  -1.561535107136712e-02
2017-01-01T11:50:30.000   6.322437270070053e+04  -7.718105601749265e+02   4.032653314759300e+00   4.382245195239199e-02   1.775010013378689e+00  -1.561545661661320e-02
2017-01-01T11:50:40.000   6.322480594044486e+04  -7.540604003423730e+02   3.876498232783697e+00   4.282549837047039e-02   1.775021942225049e+00  -1.561555967935243e-02
2017-01-01T11:50:50.000   6.322522921067504e+04  -7.363101224425477e+02   3.720342131020091e+00   4.182854824043223e-02   1.775033591074435e+00  -1.561566025962886e-02
2017-01-01T11:51:00.000   6.322564251142505e+04  -7.185597292753839e+02   3.564185034292869e+00   4.083160148369343e-02   1.775044959933488e+00  -1.561575835748523e-02
2017-01-01T11:51:10.000   6.322604584272746e+04  -7.008092236500358e+02   3.408026967507692e+00   3.983465802219190e-02   1.775056048808676e+00  -1.561585397296278e-02
2017-01-01T11:51:20.000   6.322643920461116e+04  -6.830586085555682e+02   3.251867957153120e+00   3.883771778797300e-02   1.775066857706230e+00  -1.561594710610068e-02
2017-01-01T11:51:30.000   6.322682259710499e+04  -6.653078869310554e+02   3.095708029278089e+00   3.784078071027840e-02   1.775077386632250e+00  -1.561603775693702e-02
2017-01-01T11:51:40.000   6.322719602023636e+04  -6.475570617561491e+02   2.939547210288659e+00   3.684384672063230e-02   1.775087635592664e+00  -1.561612592550828e-02
2017-01-01T11:51:50.000   6.322755947403941e+04  -6.298061356505079e+02   2.783385523424057e+00   3.584691573034426e-02   1.775097604593449e+00  -1.561621161185143e-02
2017-01-01T11:52:00.000   6.322791295854671e+04  -6.120551112743705e+02   2.627222992280651e+00   3.484998765300643e-02   1.775107293640408e+00  -1.561629481600188e-02
2017-01-01T11:52:10.000   6.322825647379120e+04  -5.943039912379930e+02   2.471059640015266e+00   3.385306239940711e-02   1.775116702739221e+00  -1.561637553799398e-02
2017-01-01T11:52:20.000   6.322859001980039e+04  -5.765527783315368e+02   2.314895491367573e+00   3.285613989044251e-02   1.775125831895285e+00  -1.561645377785960e-02
2017-01-01T11:52:30.000   6.322891359660113e+04  -5.588014753544018e+02   2.158730571158663e+00   3.185922004753064e-02   1.775134681113847e+00  -1.561652953562932e-02
2017-01-01T11:52:40.000   6.322922720421907e+04  -5.410500851152211e+02   2.002564904291031e+00   3.086230279261142e-02   1.775143250399986e+00  -1.561660281133224e-02
2017-01-01T11:52:50.000   6.322953084267687e+04  -5.232986106025603e+02   1.846398517250245e+00   2.986538805773200e-02   1.775151539758568e+00  -1.561667360499564e-02
2017-01-01T11:53:00.000   6.322982451199712e+04  -5.055470547550066e+02   1.690231436082357e+00   2.886847577213581e-02   1.775159549194325e+00  -1.561674191664558e-02
2017-01-01T11:53:10.000   6.323010821220095e+04  -4.877954205534602e+02   1.534063687205812e+00   2.787156586744532e-02   1.775167278711813e+00  -1.561680774630664e-02
2017-01-01T11:53:20.000   6.323038194331458e+04  -4.700437106138370e+02   1.377895293828308e+00   2.687465825478865e-02   1.775174728315600e+00  -1.561687109400342e-02
2017-01-01T11:53:30.000   6.323064570536285e+04  -4.522919275954002e+02   1.221726279539048e+00   2.587775284773095e-02   1.775181898010075e+00  -1.561693195975900e-02
2017-01-01T11:53:40.000   6.323089949837075e+04  -4.345400740953583e+02   1.065556667381466e+00   2.488084955635496e-02   1.775188787799503e+00  -1.561699034359535e-02
2017-01-01T11:53:50.000   6.323114332235839e+04  -4.167881529323067e+02   9.093864823467787e-01   2.388394830317902e-02   1.775195397687882e+00  -1.561704624553212e-02
2017-01-01T11:54:00.000   6.323137717734552e+04  -3.990361669123314e+02   7.532157493163019e-01   2.288704901002121e-02   1.775201727679067e+00  -1.561709966558773e-02
2017-01-01T11:54:10.000   6.323160106335038e+04  -3.812841188829365e+02   5.970444935358822e-01   2.189015160102794e-02   1.775207777776737e+00  -1.561715060377905e-02
2017-01-01T11:54:20.000   6.323181498039062e+04  -3.635320117121504e+02   4.408727404320806e-01   2.089325600150006e-02   1.775213547984426e+00  -1.561719906012170e-02
2017-01-01T11:54:30.000   6.323201892848307e+04  -3.457798482785896e+02   2.847005155247525e-01   1.989636213733505e-02   1.775219038305508e+00  -1.561724503462989e-02
2017-01-01T11:54:40.000   6.323221290764376e+04  -3.280276314502138e+02   1.285278442401666e-01   1.889946993383404e-02   1.775224248743207e+00  -1.561728852731653e-02
2017-01-01T11:54:50.000   6.323239691788874e+04  -3.102753640743972e+02  -2.764524817636154e-02   1.790257931514380e-02   1.775229179300612e+00  -1.561732953819333e-02
